NORAD_CAT_ID,OBJECT_NAME,OBJECT_TYPE,EPOCH,MEAN_MOTION,ECCENTRICITY,INCLINATION,RA_OF_ASC_NODE,ARG_OF_PERICENTER,MEAN_ANOMALY,BSTAR,MEAN_MOTION_DOT,MEAN_MOTION_DDOT,TLE_LINE0,TLE_LINE1,TLE_LINE2,SEMIMAJOR_AXIS,PERIOD,APOGEE,PERIGEE,DECAYED
52093.0,STARLINK-3673,PAYLOAD,2024-04-03 11:34:43,15.0883912,0.0001736,53.2191,14.9334,70.134,289.9839,-2.2913e-05,-6.53e-06,0.0,0 STARLINK-3673,1 52093U 22029F   24094.48244487 -.00000653  00000-0 -22913-4 0  9991,2 52093  53.2191  14.9334 0001736  70.1340 289.9839 15.08839120114199,6917.883,95.438,540.949,538.547,0.0
52093.0,STARLINK-3673,PAYLOAD,2024-04-04 03:28:34,15.08844302,0.0001419,53.2191,11.9603,95.7601,264.3553,0.00014499,2.021e-05,0.0,0 STARLINK-3673,1 52093U 22029F   24095.14484460  .00002021  00000-0  14499-3 0  9990,2 52093  53.2191  11.9603 0001419  95.7601 264.3553 15.08844302114295,6917.867,95.437,540.714,538.751,0.0
52093.0,STARLINK-3673,PAYLOAD,2024-04-04 11:25:30,15.08840067,0.0001369,53.2187,10.4731,95.6417,264.4731,8.1809e-05,1.014e-05,0.0,0 STARLINK-3673,1 52093U 22029F   24095.47604696  .00001014  00000-0  81809-4 0  9992,2 52093  53.2187  10.4731 0001369  95.6417 264.4731 15.08840067114343,6917.88,95.438,540.692,538.798,0.0
52093.0,STARLINK-3673,PAYLOAD,2024-04-05 01:43:58,15.0884332,0.0001352,53.2179,7.7964,94.8133,265.3014,0.00019915,2.883e-05,0.0,0 STARLINK-3673,1 52093U 22029F   24096.07220706  .00002883  00000-0  19915-3 0  9998,2 52093  53.2179   7.7964 0001352  94.8133 265.3014 15.08843320114438,6917.87,95.437,540.671,538.8,0.0
52093.0,STARLINK-3673,PAYLOAD,2024-04-05 11:16:17,15.08845125,0.0001232,53.2169,6.0111,91.1821,268.9312,0.00016263,2.302e-05,0.0,0 STARLINK-3673,1 52093U 22029F   24096.46964568  .00002302  00000-0  16263-3 0  9991,2 52093  53.2169   6.0111 0001232  91.1821 268.9312 15.08845125114495,6917.865,95.437,540.582,538.877,0.0
52093.0,STARLINK-3673,PAYLOAD,2024-04-05 17:37:49,15.08845168,0.0001365,53.2166,4.8243,85.2545,274.8603,0.00014186,1.971e-05,0.0,0 STARLINK-3673,1 52093U 22029F   24096.73460580  .00001971  00000-0  14186-3 0  9999,2 52093  53.2166   4.8243 0001365  85.2545 274.8603 15.08845168114539,6917.865,95.437,540.674,538.785,0.0
52093.0,STARLINK-3673,PAYLOAD,2024-04-06 01:34:45,15.08845804,0.0001299,53.2168,3.3372,74.9062,285.2074,0.00033906,5.113e-05,0.0,0 STARLINK-3673,1 52093U 22029F   24097.06580467  .00005113  00000-0  33906-3 0  9996,2 52093  53.2168   3.3372 0001299  74.9062 285.2074 15.08845804114583,6917.863,95.437,540.626,538.829,0.0
52093.0,STARLINK-3673,PAYLOAD,2024-04-06 22:14:46,15.0883721,0.0001616,53.218,359.4726,83.1611,276.9565,1.7555e-05,-9e-08,0.0,0 STARLINK-3673,1 52093U 22029F   24097.92693032 -.00000009  00000-0  17555-4 0  9997,2 52093  53.2180 359.4726 0001616  83.1611 276.9565 15.08837210114719,6917.889,95.438,540.872,538.636,0.0
52093.0,STARLINK-3673,PAYLOAD,2024-04-07 10:57:51,15.08840059,0.0001464,53.2185,357.0901,88.8685,271.2475,5.1852e-05,5.37e-06,0.0,0 STARLINK-3673,1 52093U 22029F   24098.45684869  .00000537  00000-0  51852-4 0  9997,2 52093  53.2185 357.0901 0001464  88.8685 271.2475 15.08840059114798,6917.88,95.438,540.758,538.732,0.0
52093.0,STARLINK-3673,PAYLOAD,2024-04-07 22:05:33,15.08838101,0.000122,53.219,355.0079,91.7813,268.3319,0.00018957,2.73e-05,0.0,0 STARLINK-3673,1 52093U 22029F   24098.92052993  .00002730  00000-0  18957-3 0  9991,2 52093  53.2190 355.0079 0001220  91.7813 268.3319 15.08838101114861,6917.886,95.438,540.595,538.907,0.0
52093.0,STARLINK-3673,PAYLOAD,2024-04-08 02:51:42,15.08843538,0.0001556,53.2191,354.1149,104.2601,255.8564,0.00013873,1.921e-05,0.0,0 STARLINK-3673,1 52093U 22029F   24099.11924687  .00001921  00000-0  13873-3 0  9994,2 52093  53.2191 354.1149 0001556 104.2601 255.8564 15.08843538114893,6917.87,95.437,540.811,538.658,0.0
52093.0,STARLINK-3673,PAYLOAD,2024-04-08 23:31:43,15.08846587,0.0001335,53.2164,350.2504,86.2496,273.8649,0.0001703,2.424e-05,0.0,0 STARLINK-3673,1 52093U 22029F   24099.98036488  .00002424  00000-0  17030-3 0  9990,2 52093  53.2164 350.2504 0001335  86.2496 273.8649 15.08846587115028,6917.86,95.437,540.649,538.802,0.0
52093.0,STARLINK-3673,PAYLOAD,2024-04-09 09:04:02,15.08841513,0.0001327,53.2159,348.466,84.6405,275.4738,0.00019511,2.819e-05,0.0,0 STARLINK-3673,1 52093U 22029F   24100.37780704  .00002819  00000-0  19511-3 0  9997,2 52093  53.2159 348.4660 0001327  84.6405 275.4738 15.08841513115084,6917.876,95.437,540.659,538.823,0.0
52093.0,STARLINK-3673,PAYLOAD,2024-04-09 17:00:58,15.08838182,0.0001805,53.2183,346.9803,93.4887,266.6311,9.0849e-06,-1.44e-06,0.0,0 STARLINK-3673,1 52093U 22029F   24100.70900941 -.00000144  00000-0  90849-5 0  9996,2 52093  53.2183 346.9803 0001805  93.4887 266.6311 15.08838182115139,6917.886,95.438,541.0,538.502,0.0
52093.0,STARLINK-3673,PAYLOAD,2024-04-09 23:22:30,15.0883854,0.0001819,53.2176,345.791,93.0942,267.0258,1.3212e-05,-7.8e-07,0.0,0 STARLINK-3673,1 52093U 22029F   24100.97396961 -.00000078  00000-0  13212-4 0  9990,2 52093  53.2176 345.7910 0001819  93.0942 267.0258 15.08838540115177,6917.885,95.438,541.008,538.491,0.0
52093.0,STARLINK-3673,PAYLOAD,2024-04-10 08:54:50,15.0883297,0.0001679,53.217,344.0087,94.3907,265.7277,-8.9546e-05,-1.713e-05,0.0,0 STARLINK-3673,1 52093U 22029F   24101.37141338 -.00001713  00000-0 -89546-4 0  9992,2 52093  53.2170 344.0087 0001679  94.3907 265.7277 15.08832970115231,6917.902,95.438,540.928,538.605,0.0
52093.0,STARLINK-3673,PAYLOAD,2024-04-10 20:02:31,15.08847215,0.0001176,53.2173,341.9271,95.8396,264.273,9.3664e-05,1.203e-05,0.0,0 STARLINK-3673,1 52093U 22029F   24101.83508639  .00001203  00000-0  93664-4 0  9992,2 52093  53.2173 341.9271 0001176  95.8396 264.2730 15.08847215115309,6917.858,95.437,540.537,538.91,0.0
52093.0,STARLINK-3673,PAYLOAD,2024-04-10 21:37:54,15.08851011,0.0001435,53.2185,341.6326,105.3898,254.7253,0.00011305,1.512e-05,0.0,0 STARLINK-3673,1 52093U 22029F   24101.90132380  .00001512  00000-0  11305-3 0  9990,2 52093  53.2185 341.6326 0001435 105.3898 254.7253 15.08851011115316,6917.847,95.437,540.704,538.719,0.0
52093.0,STARLINK-3673,PAYLOAD,2024-04-11 02:24:03,15.08855783,0.00011,53.2156,340.7348,85.2078,274.9039,0.0002554,3.781e-05,0.0,0 STARLINK-3673,1 52093U 22029F   24102.10003922  .00003781  00000-0  25540-3 0  9998,2 52093  53.2156 340.7348 0001100  85.2078 274.9039 15.08855783115342,6917.832,95.437,540.458,538.936,0.0
52093.0,STARLINK-3673,PAYLOAD,2024-04-11 21:28:41,15.08840753,0.0001531,53.2171,337.1658,110.1693,249.9464,9.2425e-05,1.183e-05,0.0,0 STARLINK-3673,1 52093U 22029F   24102.89492816  .00001183  00000-0  92425-4 0  9999,2 52093  53.2171 337.1658 0001531 110.1693 249.9464 15.08840753115460,6917.878,95.438,540.802,538.684,0.0
52093.0,STARLINK-3673,PAYLOAD,2024-04-12 00:39:28,15.08841506,0.0001559,53.2176,336.5706,79.4769,280.6398,0.00010561,1.393e-05,0.0,0 STARLINK-3673,1 52093U 22029F   24103.02740959  .00001393  00000-0  10561-3 0  9992,2 52093  53.2176 336.5706 0001559  79.4769 280.6398 15.08841506115480,6917.876,95.437,540.819,538.662,0.0
52093.0,STARLINK-3673,PAYLOAD,2024-04-13 00:30:15,15.0884287,0.0001447,53.2168,332.1091,87.169,272.9467,-1.3805e-06,-3.1e-06,0.0,0 STARLINK-3673,1 52093U 22029F   24104.02100910 -.00000310  00000-0 -13805-5 0  9996,2 52093  53.2168 332.1091 0001447  87.1690 272.9467 15.08842870115638,6917.872,95.437,540.738,538.736,0.0
52093.0,STARLINK-3673,PAYLOAD,2024-04-13 19:34:53,15.08836173,0.0001515,53.2172,328.5384,87.8007,272.3159,5.0976e-05,5.23e-06,0.0,0 STARLINK-3673,1 52093U 22029F   24104.81589566  .00000523  00000-0  50976-4 0  9994,2 52093  53.2172 328.5384 0001515  87.8007 272.3159 15.08836173115756,6917.892,95.438,540.805,538.709,0.0
52093.0,STARLINK-3673,PAYLOAD,2024-04-13 21:10:16,15.08836453,0.000154,53.2172,328.2412,86.151,273.9658,5.3183e-05,5.58e-06,0.0,0 STARLINK-3673,1 52093U 22029F   24104.88213577  .00000558  00000-0  53183-4 0  9998,2 52093  53.2172 328.2412 0001540  86.1510 273.9658 15.08836453115767,6917.891,95.438,540.822,538.691,0.0
52093.0,STARLINK-3673,PAYLOAD,2024-04-14 21:01:03,15.0884502,0.0001472,53.217,323.7789,93.0379,267.0782,0.00028274,4.215e-05,0.0,0 STARLINK-3673,1 52093U 22029F   24105.87573415  .00004215  00000-0  28274-3 0  9994,2 52093  53.2170 323.7789 0001472  93.0379 267.0782 15.08845020115915,6917.865,95.437,540.748,538.712,0.0
52093.0,STARLINK-3673,PAYLOAD,2024-04-15 14:30:18,15.08844085,0.0001626,53.2168,320.5173,78.4754,281.642,0.00017052,2.427e-05,0.0,0 STARLINK-3673,1 52093U 22029F   24106.60437694  .00002427  00000-0  17052-3 0  9999,2 52093  53.2168 320.5173 0001626  78.4754 281.6420 15.08844085116023,6917.868,95.437,540.858,538.608,0.0
52093.0,STARLINK-3673,PAYLOAD,2024-04-15 20:51:50,15.08844594,0.0001312,53.2152,319.3259,78.0201,282.0938,0.00015867,2.239e-05,0.0,0 STARLINK-3673,1 52093U 22029F   24106.86933563  .00002239  00000-0  15867-3 0  9996,2 52093  53.2152 319.3259 0001312  78.0201 282.0938 15.08844594116060,6917.866,95.437,540.639,538.824,0.0
52093.0,STARLINK-3673,PAYLOAD,2024-04-16 00:02:36,15.08847944,0.0001278,53.2163,318.7284,84.817,275.2968,0.00021044,3.064e-05,0.0,0 STARLINK-3673,1 52093U 22029F   24107.00181334  .00003064  00000-0  21044-3 0  9995,2 52093  53.2163 318.7284 0001278  84.8170 275.2968 15.08847944116085,6917.856,95.437,540.605,538.837,0.0
52093.0,STARLINK-3673,PAYLOAD,2024-04-16 20:42:36,15.08864795,0.0001314,53.216,314.862,77.4436,282.6703,0.00041486,6.325e-05,0.0,0 STARLINK-3673,1 52093U 22029F   24107.86292288  .00006325  00000-0  41486-3 0  9995,2 52093  53.2160 314.8620 0001314  77.4436 282.6703 15.08864795116214,6917.805,95.436,540.579,538.761,0.0
52093.0,STARLINK-3673,PAYLOAD,2024-04-16 23:53:22,15.08867752,0.0001337,53.2166,314.2669,78.1493,281.9649,0.00055272,8.526e-05,0.0,0 STARLINK-3673,1 52093U 22029F   24107.99540132  .00008526  00000-0  55272-3 0  9996,2 52093  53.2166 314.2669 0001337  78.1493 281.9649 15.08867752116232,6917.796,95.436,540.585,538.736,0.0
